{
  "type": "FeatureCollection",
  "features": [
    {
      "type": "Feature",
      "properties": {
        "norad_id": 66639,
        "name": "STARLINK-35908",
        "group": "last-30-days",
        "lat": 38.53071299685895,
        "lon": -129.63555380068547,
        "alt_km": 394.2054553936505,
        "timestamp": "2025-12-11T08:58:25.855483+00:00",
        "meta_object_name": "STARLINK-35908",
        "meta_object_id": "2025-271Y",
        "meta_epoch": "2025-12-11T04:00:01.998720",
        "meta_mean_motion": 15.56798399,
        "meta_eccentricity": 9.35e-05,
        "meta_inclination": 53.1596,
        "meta_ra_of_asc_node": 194.7091,
        "meta_arg_of_pericenter": 93.5656,
        "meta_mean_anomaly": 235.9632,
        "meta_ephemeris_type": 0,
        "meta_classification_type": "U",
        "meta_norad_cat_id": 66639,
        "meta_element_set_no": 999,
        "meta_rev_at_epoch": 399,
        "meta_bstar": -0.032182,
        "meta_mean_motion_dot": -0.02090878,
        "meta_mean_motion_ddot": 0,
        "tle_line1": "1 66639U 25271Y   25345.16668980 -.02090878  00000+0 -32182-1 0  9992",
        "tle_line2": "2 66639  53.1596 194.7091 0000935  93.5656 235.9632 15.56798399  3996"
      },
      "geometry": {
        "type": "Point",
        "coordinates": [
          -129.63555380068547,
          38.53071299685895
        ]
      }
    },
    {
      "type": "Feature",
      "properties": {
        "norad_id": 66640,
        "name": "STARLINK-35921",
        "group": "last-30-days",
        "lat": 39.74716019246279,
        "lon": -127.725520081039,
        "alt_km": 394.04395592841684,
        "timestamp": "2025-12-11T08:58:25.855499+00:00",
        "meta_object_name": "STARLINK-35921",
        "meta_object_id": "2025-271Z",
        "meta_epoch": "2025-12-11T04:00:01.998720",
        "meta_mean_motion": 15.56796584,
        "meta_eccentricity": 8.63e-05,
        "meta_inclination": 53.1596,
        "meta_ra_of_asc_node": 194.705,
        "meta_arg_of_pericenter": 95.0563,
        "meta_mean_anomaly": 236.3888,
        "meta_ephemeris_type": 0,
        "meta_classification_type": "U",
        "meta_norad_cat_id": 66640,
        "meta_element_set_no": 999,
        "meta_rev_at_epoch": 399,
        "meta_bstar": -0.032085,
        "meta_mean_motion_dot": -0.02085046,
        "meta_mean_motion_ddot": 0,
        "tle_line1": "1 66640U 25271Z   25345.16668980 -.02085046  00000+0 -32085-1 0  9997",
        "tle_line2": "2 66640  53.1596 194.7050 0000863  95.0563 236.3888 15.56796584  3999"
      },
      "geometry": {
        "type": "Point",
        "coordinates": [
          -127.725520081039,
          39.74716019246279
        ]
      }
    },
    {
      "type": "Feature",
      "properties": {
        "norad_id": 66641,
        "name": "STARLINK-35923",
        "group": "last-30-days",
        "lat": 44.262019792888545,
        "lon": -119.37134886697386,
        "alt_km": 393.3420580279753,
        "timestamp": "2025-12-11T08:58:25.855510+00:00",
        "meta_object_name": "STARLINK-35923",
        "meta_object_id": "2025-271AA",
        "meta_epoch": "2025-12-11T04:00:01.998720",
        "meta_mean_motion": 15.56795404,
        "meta_eccentricity": 8.88e-05,
        "meta_inclination": 53.1596,
        "meta_ra_of_asc_node": 194.688,
        "meta_arg_of_pericenter": 102.7307,
        "meta_mean_anomaly": 236.3843,
        "meta_ephemeris_type": 0,
        "meta_classification_type": "U",
        "meta_norad_cat_id": 66641,
        "meta_element_set_no": 999,
        "meta_rev_at_epoch": 399,
        "meta_bstar": -0.032076,
        "meta_mean_motion_dot": -0.02084501,
        "meta_mean_motion_ddot": 0,
        "tle_line1": "1 66641U 25271AA  25345.16668980 -.02084501  00000+0 -32076-1 0  9993",
        "tle_line2": "2 66641  53.1596 194.6880 0000888 102.7307 236.3843 15.56795404  3990"
      },
      "geometry": {
        "type": "Point",
        "coordinates": [
          -119.37134886697386,
          44.262019792888545
        ]
      }
    },
    {
      "type": "Feature",
      "properties": {
        "norad_id": 66642,
        "name": "STARLINK-35926",
        "group": "last-30-days",
        "lat": 43.192833885403246,
        "lon": -121.56965775705704,
        "alt_km": 393.45051920985225,
        "timestamp": "2025-12-11T08:58:25.855520+00:00",
        "meta_object_name": "STARLINK-35926",
        "meta_object_id": "2025-271AB",
        "meta_epoch": "2025-12-11T04:00:01.998720",
        "meta_mean_motion": 15.5679801,
        "meta_eccentricity": 7.81e-05,
        "meta_inclination": 53.1595,
        "meta_ra_of_asc_node": 194.6933,
        "meta_arg_of_pericenter": 88.9394,
        "meta_mean_anomaly": 248.2567,
        "meta_ephemeris_type": 0,
        "meta_classification_type": "U",
        "meta_norad_cat_id": 66642,
        "meta_element_set_no": 999,
        "meta_rev_at_epoch": 375,
        "meta_bstar": -0.032105,
        "meta_mean_motion_dot": -0.02086285,
        "meta_mean_motion_ddot": 0,
        "tle_line1": "1 66642U 25271AB  25345.16668980 -.02086285  00000+0 -32105-1 0  9998",
        "tle_line2": "2 66642  53.1595 194.6933 0000781  88.9394 248.2567 15.56798010  3757"
      },
      "geometry": {
        "type": "Point",
        "coordinates": [
          -121.56965775705704,
          43.192833885403246
        ]
      }
    },
    {
      "type": "Feature",
      "properties": {
        "norad_id": 66643,
        "name": "STARLINK-35918",
        "group": "last-30-days",
        "lat": 40.9318695887901,
        "lon": -125.74613285975536,
        "alt_km": 393.8323993829281,
        "timestamp": "2025-12-11T08:58:25.855533+00:00",
        "meta_object_name": "STARLINK-35918",
        "meta_object_id": "2025-271AC",
        "meta_epoch": "2025-12-11T04:00:01.998720",
        "meta_mean_motion": 15.56796594,
        "meta_eccentricity": 8.49e-05,
        "meta_inclination": 53.1599,
        "meta_ra_of_asc_node": 194.7015,
        "meta_arg_of_pericenter": 93.2877,
        "meta_mean_anomaly": 240.0746,
        "meta_ephemeris_type": 0,
        "meta_classification_type": "U",
        "meta_norad_cat_id": 66643,
        "meta_element_set_no": 999,
        "meta_rev_at_epoch": 399,
        "meta_bstar": -0.03209,
        "meta_mean_motion_dot": -0.02085375,
        "meta_mean_motion_ddot": 0,
        "tle_line1": "1 66643U 25271AC  25345.16668980 -.02085375  00000+0 -32090-1 0  9991",
        "tle_line2": "2 66643  53.1599 194.7015 0000849  93.2877 240.0746 15.56796594  3994"
      },
      "geometry": {
        "type": "Point",
        "coordinates": [
          -125.74613285975536,
          40.9318695887901
        ]
      }
    },
    {
      "type": "Feature",
      "properties": {
        "norad_id": 66644,
        "name": "STARLINK-35938",
        "group": "last-30-days",
        "lat": 42.08051925281573,
        "lon": -123.69653780055506,
        "alt_km": 393.64288945812586,
        "timestamp": "2025-12-11T08:58:25.855543+00:00",
        "meta_object_name": "STARLINK-35938",
        "meta_object_id": "2025-271AD",
        "meta_epoch": "2025-12-11T04:00:01.998720",
        "meta_mean_motion": 15.56794577,
        "meta_eccentricity": 8.49e-05,
        "meta_inclination": 53.1595,
        "meta_ra_of_asc_node": 194.6972,
        "meta_arg_of_pericenter": 93.8007,
        "meta_mean_anomaly": 241.4791,
        "meta_ephemeris_type": 0,
        "meta_classification_type": "U",
        "meta_norad_cat_id": 66644,
        "meta_element_set_no": 999,
        "meta_rev_at_epoch": 399,
        "meta_bstar": -0.032027,
        "meta_mean_motion_dot": -0.02081543,
        "meta_mean_motion_ddot": 0,
        "tle_line1": "1 66644U 25271AD  25345.16668980 -.02081543  00000+0 -32027-1 0  9995",
        "tle_line2": "2 66644  53.1595 194.6972 0000849  93.8007 241.4791 15.56794577  3997"
      },
      "geometry": {
        "type": "Point",
        "coordinates": [
          -123.69653780055506,
          42.08051925281573
        ]
      }
    },
    {
      "type": "Feature",
      "properties": {
        "norad_id": 66645,
        "name": "SHENZHOU-22",
        "group": "last-30-days",
        "lat": 16.078230075919112,
        "lon": 44.04688696907212,
        "alt_km": 381.72027656299633,
        "timestamp": "2025-12-11T08:58:25.855553+00:00",
        "meta_object_name": "SHENZHOU-22",
        "meta_object_id": "2025-272A",
        "meta_epoch": "2025-12-10T20:34:09.975360",
        "meta_mean_motion": 15.59054125,
        "meta_eccentricity": 0.0008705,
        "meta_inclination": 41.4684,
        "meta_ra_of_asc_node": 28.1364,
        "meta_arg_of_pericenter": 14.9689,
        "meta_mean_anomaly": 345.1405,
        "meta_ephemeris_type": 0,
        "meta_classification_type": "U",
        "meta_norad_cat_id": 66645,
        "meta_element_set_no": 999,
        "meta_rev_at_epoch": 26357,
        "meta_bstar": 0.00042990708,
        "meta_mean_motion_dot": 0.0003436,
        "meta_mean_motion_ddot": 0,
        "tle_line1": "1 66645U 25272A   25344.85705990  .00034360  00000+0  42991-3 0  9999",
        "tle_line2": "2 66645  41.4684  28.1364 0008705  14.9689 345.1405 15.59054125263579"
      },
      "geometry": {
        "type": "Point",
        "coordinates": [
          44.04688696907212,
          16.078230075919112
        ]
      }
    }
  ]
}